TIANMU-1 20             
1 58661U 23208B   26203.31096606  .00009226  00000+0  28945-3 0  9994
2 58661  97.4465 320.4796 0007013 186.1309 173.9849 15.33243243142809
TIANMU-1 21             
1 58662U 23208C   26203.31055038  .00010753  00000+0  31228-3 0  9994
2 58662  97.4526 323.3146 0007362 178.8850 181.2411 15.35645850142950
TIANMU-1 22             
1 58663U 23208D   26203.22914316  .00008234  00000+0  27325-3 0  9992
2 58663  97.4519 319.6308 0003398 190.2661 169.8511 15.31496437142699
TIANMU-1 15             
1 58700U 24004A   26203.29032449  .00005827  00000+0  22284-3 0  9998
2 58700  97.4679  29.4822 0006654 200.1436 159.9541 15.26964734141139
TIANMU-1 16             
1 58701U 24004B   26203.27931019  .00005510  00000+0  21026-3 0  9990
2 58701  97.4626  28.6839 0004902 214.1378 145.9546 15.27067860141130
TIANMU-1 17             
1 58702U 24004C   26203.26480322  .00005920  00000+0  22572-3 0  9998
2 58702  97.4654  29.1673 0004325 218.9395 141.1532 15.27065032141125
TIANMU-1 18             
1 58703U 24004D   26203.30681806  .00005537  00000+0  21186-3 0  9998
2 58703  97.4670  29.4726 0004400 195.3094 164.8012 15.26979842141132
INSAT-3DS               
1 58990U 24033A   26203.14350167 -.00000152  00000+0  00000+0 0  9990
2 58990   0.0733 263.2562 0001358 219.9162 310.4268  1.00270745 47415
METEOR-M2 4             
1 59051U 24039A   26203.28405534 -.00000001  00000+0  19426-4 0  9999
2 59051  98.7030 162.1449 0008208  71.1771 289.0297 14.22432674124254
GOES 19                 
1 60133U 24119A   26203.24303326 -.00000245  00000+0  00000+0 0  9996
2 60133   0.0196 129.4452 0000344  48.1075 134.7372  1.00272245  7315
MTG-S1                  
1 64723U 25143A   26203.07614079 -.00000003  00000+0  00000+0 0  9996
2 64723   0.5811 346.6597 0003199 256.6475  83.5968  1.00275683  3763
METOP-SGA1              
1 65159U 25172A   26203.15508442  .00000019  00000+0  28523-4 0  9998
2 65159  98.6623 262.1626 0001462  91.7284 268.4061 14.21503282 48750
FENGYUN 3H              
1 65815U 25219A   26203.27409663  .00000022  00000+0  30668-4 0  9994
2 65815  98.6770 143.3622 0000990  63.3834 296.7444 14.19925591 42367
