OBJECT_NAME,OBJECT_ID,EPOCH,MEAN_MOTION,ECCENTRICITY,INCLINATION,RA_OF_ASC_NODE,ARG_OF_PERICENTER,MEAN_ANOMALY,EPHEMERIS_TYPE,CLASSIFICATION_TYPE,NORAD_CAT_ID,ELEMENT_SET_NO,REV_AT_EPOCH,BSTAR,MEAN_MOTION_DOT,MEAN_MOTION_DDOT
TIANMU-1 20,2023-208B,2026-07-22T07:27:47.467584,15.33243243,.00070138,97.4465,320.4796,186.1309,173.9849,0,U,58661,999,14280,.2894537E-3,.9226E-4,0
TIANMU-1 21,2023-208C,2026-07-22T07:27:11.552832,15.35645850,.0007362,97.4526,323.3146,178.8850,181.2411,0,U,58662,999,14295,.31228094E-3,.10753E-3,0
TIANMU-1 22,2023-208D,2026-07-22T05:29:57.969024,15.31496437,.00033984,97.4519,319.6308,190.2661,169.8511,0,U,58663,999,14269,.27324577E-3,.8234E-4,0
TIANMU-1 15,2024-004A,2026-07-22T06:58:04.035936,15.26964734,.00066542,97.4679,29.4822,200.1436,159.9541,0,U,58700,999,14113,.22283663E-3,.5827E-4,0
TIANMU-1 16,2024-004B,2026-07-22T06:42:12.400416,15.27067860,.00049021,97.4626,28.6839,214.1378,145.9546,0,U,58701,999,14113,.21026307E-3,.551E-4,0
TIANMU-1 17,2024-004C,2026-07-22T06:21:18.998208,15.27065032,.00043253,97.4654,29.1673,218.9395,141.1532,0,U,58702,999,14112,.22571841E-3,.592E-4,0
TIANMU-1 18,2024-004D,2026-07-22T07:21:49.080384,15.26979842,.00044,97.4670,29.4726,195.3094,164.8012,0,U,58703,999,14113,.21185993E-3,.5537E-4,0
INSAT-3DS,2024-033A,2026-07-22T03:26:38.544288,1.00270745,.00013585,0.0733,263.2562,219.9162,310.4268,0,U,58990,999,4741,0,-.152E-5,0
METEOR-M2 4,2024-039A,2026-07-22T06:49:02.381376,14.22432674,.00082087,98.7030,162.1449,71.1771,289.0297,0,U,59051,999,12425,.19426117E-4,-.1E-7,0
GOES 19,2024-119A,2026-07-22T05:49:58.073664,1.00272245,.00003441,0.0196,129.4452,48.1075,134.7372,0,U,60133,999,731,0,-.245E-5,0
MTG-S1,2025-143A,2026-07-22T01:49:38.564256,1.00275683,.00031994,0.5811,346.6597,256.6475,83.5968,0,U,64723,999,376,0,-.3E-7,0
METOP-SGA1,2025-172A,2026-07-22T03:43:19.293888,14.21503282,.00014626,98.6623,262.1626,91.7284,268.4061,0,U,65159,999,4875,.28523404E-4,.19E-6,0
FENGYUN 3H,2025-219A,2026-07-22T06:34:41.948832,14.19925591,.00009909,98.6770,143.3622,63.3834,296.7444,0,U,65815,999,4236,.3066786E-4,.22E-6,0
